STARLINK-4288           
1 53005U 22076V   26068.46122715  .00000676  00000+0  60563-4 0  9992
2 53005  53.2176  95.1459 0001425  94.4429 265.6726 15.08840100202810
DISKSAT B               
1 67220U 25305B   26068.81497770  .00012481  00000+0  82401-3 0  9990
2 67220  45.0018 250.2098 0003783 311.4052  48.6498 15.07484556 12311
